{
  "links" : {
    "next" : "https://api.nasa.gov/neo/rest/v1/feed?start_date=2001-12-23&end_date=2001-12-23&detailed=true&api_key=t0TVs3DtDT2H8Oy2Zy8m2eVrNsAVKAexjcZXUckd",
    "prev" : "https://api.nasa.gov/neo/rest/v1/feed?start_date=2001-12-21&end_date=2001-12-21&detailed=true&api_key=t0TVs3DtDT2H8Oy2Zy8m2eVrNsAVKAexjcZXUckd",
    "self" : "https://api.nasa.gov/neo/rest/v1/feed?start_date=2001-12-22&end_date=2001-12-22&detailed=true&api_key=t0TVs3DtDT2H8Oy2Zy8m2eVrNsAVKAexjcZXUckd"
  },
  "element_count" : 9,
  "near_earth_objects" : {
    "2001-12-22" : [ {
      "links" : {
        "self" : "https://api.nasa.gov/neo/rest/v1/neo/2163364?api_key=t0TVs3DtDT2H8Oy2Zy8m2eVrNsAVKAexjcZXUckd"
      },
      "neo_reference_id" : "2163364",
      "name" : "163364 (2002 OD20)",
      "nasa_jpl_url" : "http://ssd.jpl.nasa.gov/sbdb.cgi?sstr=2163364",
      "absolute_magnitude_h" : 18.8,
      "estimated_diameter" : {
        "kilometers" : {
          "estimated_diameter_min" : 0.4619074603,
          "estimated_diameter_max" : 1.0328564805
        },
        "meters" : {
          "estimated_diameter_min" : 461.9074602816,
          "estimated_diameter_max" : 1032.8564805039
        },
        "miles" : {
          "estimated_diameter_min" : 0.2870159005,
          "estimated_diameter_max" : 0.6417870641
        },
        "feet" : {
          "estimated_diameter_min" : 1515.4444719902,
          "estimated_diameter_max" : 3388.6368554964
        }
      },
      "is_potentially_hazardous_asteroid" : true,
      "close_approach_data" : [ {
        "close_approach_date" : "2001-12-22",
        "epoch_date_close_approach" : 1009008000000,
        "relative_velocity" : {
          "kilometers_per_second" : "22.2181484799",
          "kilometers_per_hour" : "79985.3345276936",
          "miles_per_hour" : "49699.7763347216"
        },
        "miss_distance" : {
          "astronomical" : "0.4333559758",
          "lunar" : "168.5754852295",
          "kilometers" : "64829132",
          "miles" : "40282956"
        },
        "orbiting_body" : "Earth"
      } ],
      "orbital_data" : {
        "orbit_id" : "97",
        "orbit_determination_date" : "2017-04-06 09:26:15",
        "orbit_uncertainty" : "0",
        "minimum_orbit_intersection" : ".0264909",
        "jupiter_tisserand_invariant" : "4.760",
        "epoch_osculation" : "2458000.5",
        "eccentricity" : ".3690662035616815",
        "semi_major_axis" : "1.365668476552759",
        "inclination" : "4.188515649583878",
        "ascending_node_longitude" : "259.9748990491643",
        "orbital_period" : "582.9299296217683",
        "perihelion_distance" : ".8616463965875669",
        "perihelion_argument" : "275.2561275910415",
        "aphelion_distance" : "1.869690556517951",
        "perihelion_time" : "2458133.473436548769",
        "mean_anomaly" : "277.8796031478131",
        "mean_motion" : ".6175699371510818",
        "equinox" : "J2000"
      }
    }, {
      "links" : {
        "self" : "https://api.nasa.gov/neo/rest/v1/neo/2363163?api_key=t0TVs3DtDT2H8Oy2Zy8m2eVrNsAVKAexjcZXUckd"
      },
      "neo_reference_id" : "2363163",
      "name" : "363163 (2001 SE286)",
      "nasa_jpl_url" : "http://ssd.jpl.nasa.gov/sbdb.cgi?sstr=2363163",
      "absolute_magnitude_h" : 17.8,
      "estimated_diameter" : {
        "kilometers" : {
          "estimated_diameter_min" : 0.7320739893,
          "estimated_diameter_max" : 1.6369672047
        },
        "meters" : {
          "estimated_diameter_min" : 732.0739893473,
          "estimated_diameter_max" : 1636.96720474
        },
        "miles" : {
          "estimated_diameter_min" : 0.4548895468,
          "estimated_diameter_max" : 1.017163949
        },
        "feet" : {
          "estimated_diameter_min" : 2401.8176272101,
          "estimated_diameter_max" : 5370.6274839991
        }
      },
      "is_potentially_hazardous_asteroid" : false,
      "close_approach_data" : [ {
        "close_approach_date" : "2001-12-22",
        "epoch_date_close_approach" : 1009008000000,
        "relative_velocity" : {
          "kilometers_per_second" : "15.7768583323",
          "kilometers_per_hour" : "56796.6899961997",
          "miles_per_hour" : "35291.254403472"
        },
        "miss_distance" : {
          "astronomical" : "0.1436686297",
          "lunar" : "55.8871002197",
          "kilometers" : "21492522",
          "miles" : "13354834"
        },
        "orbiting_body" : "Earth"
      } ],
      "orbital_data" : {
        "orbit_id" : "44",
        "orbit_determination_date" : "2017-04-06 09:22:45",
        "orbit_uncertainty" : "0",
        "minimum_orbit_intersection" : ".14011",
        "jupiter_tisserand_invariant" : "3.550",
        "epoch_osculation" : "2458000.5",
        "eccentricity" : ".4564350395580016",
        "semi_major_axis" : "2.035572510199275",
        "inclination" : "26.81424345669269",
        "ascending_node_longitude" : "268.5374567484448",
        "orbital_period" : "1060.78725381268",
        "perihelion_distance" : "1.106465890983289",
        "perihelion_argument" : "199.1939789942688",
        "aphelion_distance" : "2.964679129415262",
        "perihelion_time" : "2457583.994719913000",
        "mean_anomaly" : "141.3496441368419",
        "mean_motion" : ".3393705935908342",
        "equinox" : "J2000"
      }
    }, {
      "links" : {
        "self" : "https://api.nasa.gov/neo/rest/v1/neo/3102700?api_key=t0TVs3DtDT2H8Oy2Zy8m2eVrNsAVKAexjcZXUckd"
      },
      "neo_reference_id" : "3102700",
      "name" : "(2001 XG105)",
      "nasa_jpl_url" : "http://ssd.jpl.nasa.gov/sbdb.cgi?sstr=3102700",
      "absolute_magnitude_h" : 21.4,
      "estimated_diameter" : {
        "kilometers" : {
          "estimated_diameter_min" : 0.1394938229,
          "estimated_diameter_max" : 0.3119176705
        },
        "meters" : {
          "estimated_diameter_min" : 139.4938229344,
          "estimated_diameter_max" : 311.9176705226
        },
        "miles" : {
          "estimated_diameter_min" : 0.0866774163,
          "estimated_diameter_max" : 0.1938165949
        },
        "feet" : {
          "estimated_diameter_min" : 457.6569140361,
          "estimated_diameter_max" : 1023.3519701574
        }
      },
      "is_potentially_hazardous_asteroid" : false,
      "close_approach_data" : [ {
        "close_approach_date" : "2001-12-22",
        "epoch_date_close_approach" : 1009008000000,
        "relative_velocity" : {
          "kilometers_per_second" : "12.4598948464",
          "kilometers_per_hour" : "44855.6214472085",
          "miles_per_hour" : "27871.5387820168"
        },
        "miss_distance" : {
          "astronomical" : "0.1112336029",
          "lunar" : "43.2698707581",
          "kilometers" : "16640310",
          "miles" : "10339809"
        },
        "orbiting_body" : "Earth"
      } ],
      "orbital_data" : {
        "orbit_id" : "17",
        "orbit_determination_date" : "2017-04-06 09:15:43",
        "orbit_uncertainty" : "6",
        "minimum_orbit_intersection" : ".080203",
        "jupiter_tisserand_invariant" : "4.402",
        "epoch_osculation" : "2458000.5",
        "eccentricity" : ".3344801857184057",
        "semi_major_axis" : "1.502751680715481",
        "inclination" : "21.9631376510329",
        "ascending_node_longitude" : "83.337269580056",
        "orbital_period" : "672.8670481475552",
        "perihelion_distance" : "1.000111019461121",
        "perihelion_argument" : "42.82809721182242",
        "aphelion_distance" : "2.005392341969842",
        "perihelion_time" : "2457685.240987656266",
        "mean_anomaly" : "168.6711286519356",
        "mean_motion" : ".5350239709183298",
        "equinox" : "J2000"
      }
    } ]
  }
}